{"type": "FeatureCollection", "features": [ {"type": "Feature", "properties": {"norad_id": 67039, "name": "STARLINK-35705", "group": "last-30-days", "lat": -41.53926358025689, "lon": 23.904390339689183, "alt_km": 313.506673961896, "timestamp": "2025-12-20T22:39:09.409925+00:00", "meta": {"OBJECT_NAME": "STARLINK-35705", "OBJECT_ID": "2025-294K", "EPOCH": "2025-12-20T14:00:03.000384", "MEAN_MOTION": 15.8790141, "ECCENTRICITY": 0.00016533, "INCLINATION": 42.9999, "RA_OF_ASC_NODE": 134.1856, "ARG_OF_PERICENTER": 269.623, "MEAN_ANOMALY": 84.422, "EPHEMERIS_TYPE": 0, "CLASSIFICATION_TYPE": "U", "NORAD_CAT_ID": 67039, "ELEMENT_SET_NO": 999, "REV_AT_EPOCH": 137, "BSTAR": -0.0058337017, "MEAN_MOTION_DOT": -0.01422831, "MEAN_MOTION_DDOT": 0}, "tle": {"line1": "1 67039U 25294K   25354.58336806 -.01422831  00000+0 -58337-2 0  9995", "line2": "2 67039  42.9999 134.1856 0001653 269.6230  84.4220 15.87901410  1377"}}, "geometry": {"type": "Point", "coordinates": [23.904390339689183, -41.53926358025689]}}, {"type": "Feature", "properties": {"norad_id": 67040, "name": "STARLINK-35786", "group": "last-30-days", "lat": -41.07403308761982, "lon": 21.24380464396317, "alt_km": 313.4936082365257, "timestamp": "2025-12-20T22:39:09.409934+00:00", "meta": {"OBJECT_NAME": "STARLINK-35786", "OBJECT_ID": "2025-294L", "EPOCH": "2025-12-20T14:00:03.000384", "MEAN_MOTION": 15.8786182, "ECCENTRICITY": 0.00017696, "INCLINATION": 42.9999, "RA_OF_ASC_NODE": 134.1907, "ARG_OF_PERICENTER": 267.9203, "MEAN_ANOMALY": 84.1104, "EPHEMERIS_TYPE": 0, "CLASSIFICATION_TYPE": "U", "NORAD_CAT_ID": 67040, "ELEMENT_SET_NO": 999, "REV_AT_EPOCH": 137, "BSTAR": -0.0057873284, "MEAN_MOTION_DOT": -0.01410648, "MEAN_MOTION_DDOT": 0}, "tle": {"line1": "1 67040U 25294L   25354.58336806 -.01410648  00000+0 -57873-2 0  9994", "line2": "2 67040  42.9999 134.1907 0001769 267.9203  84.1104 15.87861820  1373"}}, "geometry": {"type": "Point", "coordinates": [21.24380464396317, -41.07403308761982]}}, {"type": "Feature", "properties": {"norad_id": 67041, "name": "STARLINK-35765", "group": "last-30-days", "lat": -41.92641483313567, "lon": 26.487475220896144, "alt_km": 313.4038994183593, "timestamp": "2025-12-20T22:39:09.409942+00:00", "meta": {"OBJECT_NAME": "STARLINK-35765", "OBJECT_ID": "2025-294M", "EPOCH": "2025-12-20T14:00:03.000384", "MEAN_MOTION": 15.87937039, "ECCENTRICITY": 0.00016674, "INCLINATION": 42.9998, "RA_OF_ASC_NODE": 134.1806, "ARG_OF_PERICENTER": 269.4622, "MEAN_ANOMALY": 86.5094, "EPHEMERIS_TYPE": 0, "CLASSIFICATION_TYPE": "U", "NORAD_CAT_ID": 67041, "ELEMENT_SET_NO": 999, "REV_AT_EPOCH": 137, "BSTAR": -0.0058299385, "MEAN_MOTION_DOT": -0.01424268, "MEAN_MOTION_DDOT": 0}, "tle": {"line1": "1 67041U 25294M   25354.58336806 -.01424268  00000+0 -58299-2 0  9991", "line2": "2 67041  42.9998 134.1806 0001667 269.4622  86.5094 15.87937039  1370"}}, "geometry": {"type": "Point", "coordinates": [26.487475220896144, -41.92641483313567]}}, {"type": "Feature", "properties": {"norad_id": 67042, "name": "STARLINK-35773", "group": "last-30-days", "lat": -42.28596614383526, "lon": 29.375574871033507, "alt_km": 313.30286760359377, "timestamp": "2025-12-20T22:39:09.409971+00:00", "meta": {"OBJECT_NAME": "STARLINK-35773", "OBJECT_ID": "2025-294N", "EPOCH": "2025-12-20T14:00:03.000384", "MEAN_MOTION": 15.87970664, "ECCENTRICITY": 0.00017115, "INCLINATION": 42.9999, "RA_OF_ASC_NODE": 134.1753, "ARG_OF_PERICENTER": 269.0948, "MEAN_ANOMALY": 89.0173, "EPHEMERIS_TYPE": 0, "CLASSIFICATION_TYPE": "U", "NORAD_CAT_ID": 67042, "ELEMENT_SET_NO": 999, "REV_AT_EPOCH": 157, "BSTAR": -0.005860955, "MEAN_MOTION_DOT": -0.01432985, "MEAN_MOTION_DDOT": 0}, "tle": {"line1": "1 67042U 25294N   25354.58336806 -.01432985  00000+0 -58610-2 0  9994", "line2": "2 67042  42.9999 134.1753 0001711 269.0948  89.0173 15.87970664  1579"}}, "geometry": {"type": "Point", "coordinates": [29.375574871033507, -42.28596614383526]}}, {"type": "Feature", "properties": {"norad_id": 67043, "name": "STARLINK-35901", "group": "last-30-days", "lat": -42.569486855162154, "lon": 32.26383224329685, "alt_km": 313.2025891349531, "timestamp": "2025-12-20T22:39:09.409982+00:00", "meta": {"OBJECT_NAME": "STARLINK-35901", "OBJECT_ID": "2025-294P", "EPOCH": "2025-12-20T14:00:03.000384", "MEAN_MOTION": 15.88006279, "ECCENTRICITY": 0.00017264, "INCLINATION": 43, "RA_OF_ASC_NODE": 134.1701, "ARG_OF_PERICENTER": 268.3788, "MEAN_ANOMALY": 91.8462, "EPHEMERIS_TYPE": 0, "CLASSIFICATION_TYPE": "U", "NORAD_CAT_ID": 67043, "ELEMENT_SET_NO": 999, "REV_AT_EPOCH": 157, "BSTAR": -0.0058700308, "MEAN_MOTION_DOT": -0.0143716, "MEAN_MOTION_DDOT": 0}, "tle": {"line1": "1 67043U 25294P   25354.58336806 -.01437160  00000+0 -58700-2 0  9995", "line2": "2 67043  43.0000 134.1701 0001726 268.3788  91.8462 15.88006279  1573"}}, "geometry": {"type": "Point", "coordinates": [32.26383224329685, -42.569486855162154]}}, {"type": "Feature", "properties": {"norad_id": 67044, "name": "STARLINK-35884", "group": "last-30-days", "lat": -42.77378397433112, "lon": 35.07562566319623, "alt_km": 313.1402124304641, "timestamp": "2025-12-20T22:39:09.409992+00:00", "meta": {"OBJECT_NAME": "STARLINK-35884", "OBJECT_ID": "2025-294Q", "EPOCH": "2025-12-20T14:00:03.000384", "MEAN_MOTION": 15.88040625, "ECCENTRICITY": 0.00017185, "INCLINATION": 43.0002, "RA_OF_ASC_NODE": 134.1648, "ARG_OF_PERICENTER": 271.4372, "MEAN_ANOMALY": 90.8323, "EPHEMERIS_TYPE": 0, "CLASSIFICATION_TYPE": "U", "NORAD_CAT_ID": 67044, "ELEMENT_SET_NO": 999, "REV_AT_EPOCH": 157, "BSTAR": -0.0058913983, "MEAN_MOTION_DOT": -0.01443851, "MEAN_MOTION_DDOT": 0}, "tle": {"line1": "1 67044U 25294Q   25354.58336806 -.01443851  00000+0 -58914-2 0  9997", "line2": "2 67044  43.0002 134.1648 0001718 271.4372  90.8323 15.88040625  1579"}}, "geometry": {"type": "Point", "coordinates": [35.07562566319623, -42.77378397433112]}}, {"type": "Feature", "properties": {"norad_id": 67045, "name": "STARLINK-35891", "group": "last-30-days", "lat": -42.92765418116289, "lon": 38.499252263310495, "alt_km": 313.1060365696876, "timestamp": "2025-12-20T22:39:09.410000+00:00", "meta": {"OBJECT_NAME": "STARLINK-35891", "OBJECT_ID": "2025-294R", "EPOCH": "2025-12-20T14:00:03.000384", "MEAN_MOTION": 15.8807289, "ECCENTRICITY": 0.00016815, "INCLINATION": 43, "RA_OF_ASC_NODE": 134.1583, "ARG_OF_PERICENTER": 272.6695, "MEAN_ANOMALY": 92.0881, "EPHEMERIS_TYPE": 0, "CLASSIFICATION_TYPE": "U", "NORAD_CAT_ID": 67045, "ELEMENT_SET_NO": 999, "REV_AT_EPOCH": 149, "BSTAR": -0.0059387333, "MEAN_MOTION_DOT": -0.01455898, "MEAN_MOTION_DDOT": 0}, "tle": {"line1": "1 67045U 25294R   25354.58336806 -.01455898  00000+0 -59387-2 0  9997", "line2": "2 67045  43.0000 134.1583 0001681 272.6695  92.0881 15.88072890  1499"}}, "geometry": {"type": "Point", "coordinates": [38.499252263310495, -42.92765418116289]}}, {"type": "Feature", "properties": {"norad_id": 67046, "name": "STARLINK-35721", "group": "last-30-days", "lat": -42.97860892700809, "lon": 41.583536669943044, "alt_km": 313.02607970376084, "timestamp": "2025-12-20T22:39:09.410009+00:00", "meta": {"OBJECT_NAME": "STARLINK-35721", "OBJECT_ID": "2025-294S", "EPOCH": "2025-12-20T14:00:03.000384", "MEAN_MOTION": 15.88109767, "ECCENTRICITY": 0.0001663, "INCLINATION": 43.0002, "RA_OF_ASC_NODE": 134.1528, "ARG_OF_PERICENTER": 271.8252, "MEAN_ANOMALY": 95.1531, "EPHEMERIS_TYPE": 0, "CLASSIFICATION_TYPE": "U", "NORAD_CAT_ID": 67046, "ELEMENT_SET_NO": 999, "REV_AT_EPOCH": 157, "BSTAR": -0.0059615097, "MEAN_MOTION_DOT": -0.01463058, "MEAN_MOTION_DDOT": 0}, "tle": {"line1": "1 67046U 25294S   25354.58336806 -.01463058  00000+0 -59615-2 0  9999", "line2": "2 67046  43.0002 134.1528 0001663 271.8252  95.1531 15.88109767  1570"}}, "geometry": {"type": "Point", "coordinates": [41.583536669943044, -42.97860892700809]}}, {"type": "Feature", "properties": {"norad_id": 67047, "name": "STARLINK-35779", "group": "last-30-days", "lat": -42.93711262428904, "lon": 45.016981009858995, "alt_km": 312.9328929221383, "timestamp": "2025-12-20T22:39:09.410018+00:00", "meta": {"OBJECT_NAME": "STARLINK-35779", "OBJECT_ID": "2025-294T", "EPOCH": "2025-12-20T14:00:03.000384", "MEAN_MOTION": 15.88141901, "ECCENTRICITY": 0.00016972, "INCLINATION": 43, "RA_OF_ASC_NODE": 134.1469, "ARG_OF_PERICENTER": 271.3066, "MEAN_ANOMALY": 98.1564, "EPHEMERIS_TYPE": 0, "CLASSIFICATION_TYPE": "U", "NORAD_CAT_ID": 67047, "ELEMENT_SET_NO": 999, "REV_AT_EPOCH": 138, "BSTAR": -0.0060013511, "MEAN_MOTION_DOT": -0.01473586, "MEAN_MOTION_DDOT": 0}, "tle": {"line1": "1 67047U 25294T   25354.58336806 -.01473586  00000+0 -60014-2 0  9992", "line2": "2 67047  43.0000 134.1469 0001697 271.3066  98.1564 15.88141901  1382"}}, "geometry": {"type": "Point", "coordinates": [45.016981009858995, -42.93711262428904]}}, {"type": "Feature", "properties": {"norad_id": 67048, "name": "STARLINK-35905", "group": "last-30-days", "lat": -42.838656084382, "lon": 47.58835124635903, "alt_km": 312.8405655551451, "timestamp": "2025-12-20T22:39:09.410026+00:00", "meta": {"OBJECT_NAME": "STARLINK-35905", "OBJECT_ID": "2025-294U", "EPOCH": "2025-12-20T14:00:03.000384", "MEAN_MOTION": 15.88178224, "ECCENTRICITY": 0.00016821, "INCLINATION": 43.0001, "RA_OF_ASC_NODE": 134.1422, "ARG_OF_PERICENTER": 271.7485, "MEAN_ANOMALY": 99.5607, "EPHEMERIS_TYPE": 0, "CLASSIFICATION_TYPE": "U", "NORAD_CAT_ID": 67048, "ELEMENT_SET_NO": 999, "REV_AT_EPOCH": 149, "BSTAR": -0.0059976785, "MEAN_MOTION_DOT": -0.01475132, "MEAN_MOTION_DDOT": 0}, "tle": {"line1": "1 67048U 25294U   25354.58336806 -.01475132  00000+0 -59977-2 0  9998", "line2": "2 67048  43.0001 134.1422 0001682 271.7485  99.5607 15.88178224  1499"}}, "geometry": {"type": "Point", "coordinates": [47.58835124635903, -42.838656084382]}}]}